[{"OBJECT_NAME":"FOSSASAT-2E18 (TAT-A)","OBJECT_ID":"2025-009CF","EPOCH":"2026-03-09T17:01:45.499296","MEAN_MOTION":15.20457243,"ECCENTRICITY":0.00051914,"INCLINATION":97.4018,"RA_OF_ASC_NODE":148.8446,"ARG_OF_PERICENTER":339.5047,"MEAN_ANOMALY":20.598,"EPHEMERIS_TYPE":0,"CLASSIFICATION_TYPE":"U","NORAD_CAT_ID":62686,"ELEMENT_SET_NO":999,"REV_AT_EPOCH":6357,"BSTAR":0.00019425046,"MEAN_MOTION_DOT":4.172e-5,"MEAN_MOTION_DDOT":0},{"OBJECT_NAME":"FLOCK 4H-17","OBJECT_ID":"2025-276BG","EPOCH":"2026-03-09T12:13:32.774304","MEAN_MOTION":15.19779499,"ECCENTRICITY":0.00021349,"INCLINATION":97.4298,"RA_OF_ASC_NODE":143.9091,"ARG_OF_PERICENTER":323.7123,"MEAN_ANOMALY":36.3967,"EPHEMERIS_TYPE":0,"CLASSIFICATION_TYPE":"U","NORAD_CAT_ID":66720,"ELEMENT_SET_NO":999,"REV_AT_EPOCH":1529,"BSTAR":0.00077231718,"MEAN_MOTION_DOT":0.00016485,"MEAN_MOTION_DDOT":0}]
