FOSSASAT-2E18 (TAT-A)   
1 62686U 25009CF  26068.70955439  .00004172  00000+0  19425-3 0  9995
2 62686  97.4018 148.8446 0005191 339.5047  20.5980 15.20457243 63579
FLOCK 4H-17             
1 66720U 25276BG  26068.50940711  .00016485  00000+0  77232-3 0  9999
2 66720  97.4298 143.9091 0002134 323.7123  36.3967 15.19779499 15292
